KUIPER-00261            
1 67158U 25301AB  25359.16668980  .00052342  00000+0  15017-2 0  9997
2 67158  51.8691  65.2030 0005765 125.7105  38.7629 15.35343965  1740
KUIPER-00265            
1 67159U 25301AC  25359.16668980  .00056091  00000+0  15583-2 0  9991
2 67159  51.8734  65.1347 0001749  96.6741  98.7731 15.36332172  2301
GALILEO A               
1 67160U 25302A   25352.14605887 -.00000007  00000+0  00000+0 0  9994
2 67160  54.2406 107.2544 0008423 237.6458 122.2317  1.72906186    28
GALILEO B               
1 67161U 25302B   25353.30200568 -.00000005  00000+0  00000+0 0  9999
2 67161  54.2272 107.1916 0004586 255.0301 104.8802  1.72972192    57
ARIANE 6 R/B            
1 67162U 25302C   25353.30035962 -.00000005  00000+0  00000+0 0  9994
2 67162  54.2437 107.2220 0000255 160.7324 199.2296  1.73130298    88
DISKSAT A               
1 67219U 25305A   25354.38090451  .00000510  00000+0  50887-4 0  9996
2 67219  45.0057 310.0654 0003912 276.1097  83.9332 15.05762698   337
DISKSAT B               
1 67220U 25305B   25354.24828476  .00000511  00000+0  51086-4 0  9992
2 67220  45.0108 310.7693 0004681 270.4757  89.5581 15.05702195   312
DISKSAT C               
1 67221U 25305C   25354.31471422  .00001256  00000+0  10191-3 0  9994
2 67221  45.0067 310.4143 0004387 282.7791  77.2594 15.05653670   312
DISKSAT D               
1 67222U 25305D   25354.31483363  .00001252  00000+0  10184-3 0  9990
2 67222  45.0056 310.4150 0004477 287.6101  72.4284 15.05567005   317
ELECTRON KICK STAGE R/B 
1 67223U 25305E   25357.29083347  .00018707  00000+0  18366-3 0  9992
2 67223  44.9877 292.9264 0177490 166.6089 193.9601 15.48545747   794
ELECTRON R/B            
1 67224U 25305F   25352.76890193  .00172783  86369-5  22935-3 0  9995
2 67224  45.0188 318.3021 0262888 280.1207  77.0133 15.64663678    93
TJS-23                  
1 67226U 25306A   25355.35057138  .00003331  00000+0  71636-3 0  9996
2 67226  16.4010 298.8861 7754040 179.8382 143.9016  1.72705756    20
